STARLINK-3809           
1 52851U 22062X   26068.17326614 -.00000058  00000+0  14440-4 0  9995
2 52851  53.2191  26.4370 0001282  90.8773 269.2366 15.08837001205849
2024-205L               
1 61904U 24205L   26066.14074752  .00013606  00000+0  79283-3 0  9990
2 61904  97.4213 140.2188 0054772 346.2042  13.7688 15.10822925 72825
